        2              NAVIGATION DATA                         RINEX VERSION / TYPE
CCRINEXN V1.6.0 UX  CDDIS               04-APR-24 23:31     PGM / RUN BY / DATE 
IGS BROADCAST EPHEMERIS FILE                                COMMENT             
    0.2608D-07  0.1490D-07 -0.1192D-06 -0.5960D-07          ION ALPHA           
    0.1290D+06  0.1638D+05 -0.2621D+06  0.3277D+06          ION BETA            
    0.931322574615D-09 0.177635683940D-14   405504     2308 DELTA-UTC: A0,A1,T,W
    18                                                      LEAP SECONDS        
                                                            END OF HEADER    
13 24  4  3 12  0  0.0 0.639637466520E-03 0.318323145621E-11 0.000000000000E+00
    0.650000000000E+02-0.776875000000E+02 0.425339145654E-08-0.810436440811E+00
   -0.393204391003E-05 0.787786126602E-02 0.932253897190E-05 0.515366163063E+04
    0.302400000000E+06 0.502914190292E-07-0.102498615865E+01 0.134110450745E-06
    0.971048035523E+00 0.207031250000E+03 0.927075333757E+00-0.790997233924E-08
    0.120004998690E-09 0.100000000000E+01 0.230800000000E+04 0.000000000000E+00
    0.200000000000E+01 0.000000000000E+00-0.116415321827E-07 0.650000000000E+02
    0.295218000000E+06 0.400000000000E+01 0.000000000000E+00 0.000000000000E+00
14 24  4  3 12  0  0.0 0.366958323866E-03 0.954969436862E-11 0.000000000000E+00
    0.150000000000E+03 0.213125000000E+02 0.521557439247E-08 0.220153733194E+01
    0.114738941193E-05 0.420896802098E-02 0.634416937828E-05 0.515368968010E+04
    0.302400000000E+06-0.108033418655E-06 0.953726672921E+00 0.745058059692E-07
    0.946140605891E+00 0.251875000000E+03-0.294680578720E+01-0.832427531091E-08
   -0.260367988229E-09 0.100000000000E+01 0.230800000000E+04 0.000000000000E+00
    0.200000000000E+01 0.000000000000E+00-0.791624188423E-08 0.662000000000E+03
    0.295218000000E+06 0.400000000000E+01 0.000000000000E+00 0.000000000000E+00
15 24  4  3 12  0  0.0 0.144477467984E-03 0.409272615798E-11 0.000000000000E+00
    0.420000000000E+02-0.887500000000E+02 0.506592530184E-08-0.148295173295E+01
   -0.431388616562E-05 0.154804307967E-01 0.798515975475E-05 0.515363159752E+04
    0.302400000000E+06 0.221654772759E-06-0.131667839657E+01 0.333413481712E-06
    0.934620087981E+00 0.205687500000E+03 0.129973006345E+01-0.826462996930E-08
    0.675028117631E-10 0.100000000000E+01 0.230800000000E+04 0.000000000000E+00
    0.200000000000E+01 0.000000000000E+00-0.107102096081E-07 0.420000000000E+02
    0.295218000000E+06 0.400000000000E+01 0.000000000000E+00 0.000000000000E+00
16 24  4  3 12  0  0.0-0.325813889503E-03 0.920863385545E-11 0.000000000000E+00
    0.550000000000E+02 0.230937500000E+02 0.485305929226E-08 0.420192011301E+00
    0.149197876453E-05 0.139865941601E-01 0.671856105328E-05 0.515374824905E+04
    0.302400000000E+06-0.819563865662E-07 0.101526708830E+01 0.175088644028E-06
    0.962278400472E+00 0.250031250000E+03 0.834876778255E+00-0.827391607039E-08
   -0.422517599554E-09 0.100000000000E+01 0.230800000000E+04 0.000000000000E+00
    0.200000000000E+01 0.000000000000E+00-0.102445483208E-07 0.550000000000E+02
    0.295218000000E+06 0.400000000000E+01 0.000000000000E+00 0.000000000000E+00
17 24  4  3 12  0  0.0 0.711059197783E-03-0.170530256582E-11 0.000000000000E+00
    0.680000000000E+02 0.440312500000E+02 0.423267630796E-08-0.499895972205E+00
    0.230781733990E-05 0.134372834582E-01 0.931508839130E-05 0.515370273018E+04
    0.302400000000E+06-0.230967998505E-06 0.203690325672E+01 0.707805156708E-07
    0.969526672403E+00 0.209468750000E+03-0.132719145547E+01-0.808569394446E-08
   -0.313584490624E-09 0.100000000000E+01 0.230800000000E+04 0.000000000000E+00
    0.200000000000E+01 0.000000000000E+00-0.111758708954E-07 0.680000000000E+02
    0.295626000000E+06 0.400000000000E+01 0.000000000000E+00 0.000000000000E+00
18 24  4  3 12  0  0.0-0.587795395404E-03-0.693489710102E-11 0.000000000000E+00
    0.205000000000E+03 0.664375000000E+02 0.405874049140E-08-0.252202924080E+01
    0.345706939697E-05 0.392966298387E-02 0.534951686859E-05 0.515361685181E+04
    0.302400000000E+06 0.316649675369E-07 0.304136827496E+01 0.558793544769E-08
    0.974819227671E+00 0.285968750000E+03-0.304229031858E+01-0.794390232399E-08
    0.201794119821E-09 0.100000000000E+01 0.230800000000E+04 0.000000000000E+00
    0.200000000000E+01 0.000000000000E+00-0.838190317154E-08 0.973000000000E+03
    0.295218000000E+06 0.400000000000E+01 0.000000000000E+00 0.000000000000E+00
19 24  4  3 12  0  0.0 0.463000498712E-03 0.534328137292E-11 0.000000000000E+00
    0.520000000000E+02 0.397812500000E+02 0.420910389750E-08 0.152196340302E+01
    0.215135514736E-05 0.964624935295E-02 0.860728323460E-05 0.515369748688E+04
    0.302400000000E+06 0.167638063431E-06 0.208126971605E+01 0.154599547386E-06
    0.968722493169E+00 0.214812500000E+03 0.250410691438E+01-0.780318217672E-08
   -0.458947688442E-09 0.100000000000E+01 0.230800000000E+04 0.000000000000E+00
    0.280000000000E+01 0.000000000000E+00-0.153668224812E-07 0.520000000000E+02
    0.298308000000E+06 0.400000000000E+01 0.000000000000E+00 0.000000000000E+00
20 24  4  3 12  0  0.0 0.381549820304E-03-0.136424205266E-11 0.000000000000E+00
    0.580000000000E+02-0.264687500000E+02 0.471126767178E-08-0.203546562371E+01
   -0.135786831379E-05 0.371056434233E-02 0.277347862721E-05 0.515376028824E+04
    0.302400000000E+06 0.558793544769E-07-0.238894569158E+01-0.763684511185E-07
    0.953037639969E+00 0.320781250000E+03-0.260144306701E+01-0.837820612877E-08
    0.195365280605E-09 0.100000000000E+01 0.230800000000E+04 0.000000000000E+00
    0.200000000000E+01 0.000000000000E+00-0.838190317154E-08 0.580000000000E+02
    0.295218000000E+06 0.400000000000E+01 0.000000000000E+00 0.000000000000E+00
21 24  4  3 12  0  0.0 0.128760933876E-03-0.159161572810E-11 0.000000000000E+00
    0.750000000000E+02 0.721875000000E+02 0.436911056242E-08-0.632744453901E+00
    0.364519655704E-05 0.252528715646E-01 0.590458512306E-05 0.515370586777E+04
    0.302400000000E+06-0.236555933952E-06 0.293261499761E+01-0.519677996635E-06
    0.962000592329E+00 0.270968750000E+03-0.595959406593E+00-0.836106255753E-08
    0.300369654459E-09 0.100000000000E+01 0.230800000000E+04 0.000000000000E+00
    0.200000000000E+01 0.000000000000E+00-0.102445483208E-07 0.750000000000E+02
    0.295218000000E+06 0.400000000000E+01 0.000000000000E+00 0.000000000000E+00
22 24  4  3 12  0  0.0 0.608526170254E-05-0.568434188608E-11 0.000000000000E+00
    0.540000000000E+02 0.154062500000E+02 0.494020577940E-08 0.113607248312E-01
    0.840052962303E-06 0.143889817409E-01 0.663846731186E-05 0.515370410347E+04
    0.302400000000E+06-0.121071934700E-06 0.101856654789E+01-0.165775418282E-06
    0.961582749278E+00 0.256875000000E+03-0.113748379530E+01-0.842927968476E-08
   -0.282868925483E-09 0.100000000000E+01 0.230800000000E+04 0.000000000000E+00
    0.200000000000E+01 0.000000000000E+00-0.111758708954E-07 0.540000000000E+02
    0.295218000000E+06 0.400000000000E+01 0.000000000000E+00 0.000000000000E+00
23 24  4  3 12  0  0.0 0.192089937627E-03 0.898126018001E-11 0.000000000000E+00
    0.235000000000E+03-0.525000000000E+02 0.420731810883E-08 0.260258595128E+01
   -0.258348882198E-05 0.404734013136E-02 0.340677797794E-05 0.515370963860E+04
    0.302400000000E+06-0.143423676491E-06-0.224172008695E+01-0.186264514923E-07
    0.978319128976E+00 0.320031250000E+03-0.295761156577E+01-0.810390898891E-08
    0.109647424398E-09 0.100000000000E+01 0.230800000000E+04 0.000000000000E+00
    0.200000000000E+01 0.000000000000E+00-0.838190317154E-08 0.235000000000E+03
    0.295218000000E+06 0.400000000000E+01 0.000000000000E+00 0.000000000000E+00
24 24  4  3 12  0  0.0-0.454852357507E-03-0.477484718431E-11 0.000000000000E+00
    0.660000000000E+02 0.108437500000E+02 0.522307470488E-08-0.234323166087E+01
    0.409781932831E-06 0.151661238633E-01 0.917725265026E-05 0.515372023392E+04
    0.302400000000E+06 0.201165676117E-06-0.213990273097E+00-0.782310962677E-07
    0.934338293386E+00 0.185406250000E+03 0.972625396220E+00-0.804354933183E-08
    0.489663253583E-09 0.100000000000E+01 0.230800000000E+04 0.000000000000E+00
    0.200000000000E+01 0.000000000000E+00 0.232830643654E-08 0.660000000000E+02
    0.295218000000E+06 0.400000000000E+01 0.000000000000E+00 0.000000000000E+00
25 24  4  3 12  0  0.0 0.492908526212E-03 0.909494701773E-12 0.000000000000E+00
    0.930000000000E+02 0.195937500000E+02 0.497127850228E-08 0.211942652262E+01
    0.698491930962E-06 0.118105116999E-01 0.653602182865E-05 0.515358586121E+04
    0.302400000000E+06-0.633299350738E-07 0.911365037486E+00-0.206753611565E-06
    0.950743987766E+00 0.246031250000E+03 0.108577440300E+01-0.807247910830E-08
   -0.272154193457E-09 0.100000000000E+01 0.230800000000E+04 0.000000000000E+00
    0.200000000000E+01 0.000000000000E+00 0.558793544769E-08 0.930000000000E+02
    0.295218000000E+06 0.400000000000E+01 0.000000000000E+00 0.000000000000E+00
26 24  4  3 12  0  0.0 0.171529594809E-03-0.488853402203E-11 0.000000000000E+00
    0.800000000000E+02 0.235625000000E+02 0.560809074235E-08 0.131361224024E+01
    0.148080289364E-05 0.884910603054E-02 0.657327473164E-05 0.515360671043E+04
    0.302400000000E+06-0.335276126862E-07 0.849872967158E+00 0.143423676491E-06
    0.931555880253E+00 0.238750000000E+03 0.540555594619E+00-0.854928468345E-08
   -0.322870591713E-09 0.100000000000E+01 0.230800000000E+04 0.000000000000E+00
    0.280000000000E+01 0.000000000000E+00 0.698491930962E-08 0.800000000000E+02
    0.295218000000E+06 0.400000000000E+01 0.000000000000E+00 0.000000000000E+00
